CCSDS_OMM_VERS = 2.0
CREATION_DATE  = 
ORIGINATOR     = 

OBJECT_NAME    = ATLAS CENTAUR 2
OBJECT_ID      = 1963-047A
CENTER_NAME    = EARTH
REF_FRAME      = TEME
TIME_SYSTEM    = UTC
MEAN_ELEMENT_THEORY = SGP/SGP4

EPOCH          = 2025-12-27T01:52:24.339072
MEAN_MOTION    = 14.11821023
ECCENTRICITY   = .05486388
INCLINATION    = 30.3527
RA_OF_ASC_NODE = 241.3647
ARG_OF_PERICENTER = 160.4844
MEAN_ANOMALY   = 201.7656

EPHEMERIS_TYPE = 0
CLASSIFICATION_TYPE = U
NORAD_CAT_ID   = 694
ELEMENT_SET_NO = 999
REV_AT_EPOCH   = 12135
BSTAR          = .24827854E-3
MEAN_MOTION_DOT = .2127E-4
MEAN_MOTION_DDOT = 0

CCSDS_OMM_VERS = 2.0
CREATION_DATE  = 
ORIGINATOR     = 

OBJECT_NAME    = THOR AGENA D R/B
OBJECT_ID      = 1964-002A
CENTER_NAME    = EARTH
REF_FRAME      = TEME
TIME_SYSTEM    = UTC
MEAN_ELEMENT_THEORY = SGP/SGP4

EPOCH          = 2025-12-26T22:57:42.627168
MEAN_MOTION    = 14.33967932
ECCENTRICITY   = .0033835
INCLINATION    = 99.1220
RA_OF_ASC_NODE = 5.3443
ARG_OF_PERICENTER = 109.6515
MEAN_ANOMALY   = 250.8324

EPHEMERIS_TYPE = 0
CLASSIFICATION_TYPE = U
NORAD_CAT_ID   = 733
ELEMENT_SET_NO = 999
REV_AT_EPOCH   = 22787
BSTAR          = .11133E-3
MEAN_MOTION_DOT = .264E-5
MEAN_MOTION_DDOT = 0

CCSDS_OMM_VERS = 2.0
CREATION_DATE  = 
ORIGINATOR     = 

OBJECT_NAME    = SL-3 R/B
OBJECT_ID      = 1964-053B
CENTER_NAME    = EARTH
REF_FRAME      = TEME
TIME_SYSTEM    = UTC
MEAN_ELEMENT_THEORY = SGP/SGP4

EPOCH          = 2025-12-26T21:01:24.163104
MEAN_MOTION    = 14.61286155
ECCENTRICITY   = .0075058
INCLINATION    = 65.0749
RA_OF_ASC_NODE = 184.6955
ARG_OF_PERICENTER = 315.6961
MEAN_ANOMALY   = 43.8146

EPHEMERIS_TYPE = 0
CLASSIFICATION_TYPE = U
NORAD_CAT_ID   = 877
ELEMENT_SET_NO = 999
REV_AT_EPOCH   = 25615
BSTAR          = .75064E-4
MEAN_MOTION_DOT = .261E-5
MEAN_MOTION_DDOT = 0

CCSDS_OMM_VERS = 2.0
CREATION_DATE  = 
ORIGINATOR     = 

OBJECT_NAME    = SL-8 R/B
OBJECT_ID      = 1967-045B
CENTER_NAME    = EARTH
REF_FRAME      = TEME
TIME_SYSTEM    = UTC
MEAN_ELEMENT_THEORY = SGP/SGP4

EPOCH          = 2025-12-27T07:49:35.688864
MEAN_MOTION    = 14.45552237
ECCENTRICITY   = .00635601
INCLINATION    = 74.0110
RA_OF_ASC_NODE = 123.2260
ARG_OF_PERICENTER = 148.9235
MEAN_ANOMALY   = 211.5708

EPHEMERIS_TYPE = 0
CLASSIFICATION_TYPE = U
NORAD_CAT_ID   = 2802
ELEMENT_SET_NO = 999
REV_AT_EPOCH   = 7856
BSTAR          = .15564367E-3
MEAN_MOTION_DOT = .535E-5
MEAN_MOTION_DDOT = 0

CCSDS_OMM_VERS = 2.0
CREATION_DATE  = 
ORIGINATOR     = 

OBJECT_NAME    = SL-8 R/B
OBJECT_ID      = 1968-040B
CENTER_NAME    = EARTH
REF_FRAME      = TEME
TIME_SYSTEM    = UTC
MEAN_ELEMENT_THEORY = SGP/SGP4

EPOCH          = 2025-12-27T06:54:53.761536
MEAN_MOTION    = 15.02628721
ECCENTRICITY   = .00261397
INCLINATION    = 74.0313
RA_OF_ASC_NODE = 101.5651
ARG_OF_PERICENTER = 300.8071
MEAN_ANOMALY   = 59.0545

EPHEMERIS_TYPE = 0
CLASSIFICATION_TYPE = U
NORAD_CAT_ID   = 3230
ELEMENT_SET_NO = 999
REV_AT_EPOCH   = 7913
BSTAR          = .33289434E-3
MEAN_MOTION_DOT = .4428E-4
MEAN_MOTION_DDOT = 0

CCSDS_OMM_VERS = 2.0
CREATION_DATE  = 
ORIGINATOR     = 

OBJECT_NAME    = OAO 2
OBJECT_ID      = 1968-110A
CENTER_NAME    = EARTH
REF_FRAME      = TEME
TIME_SYSTEM    = UTC
MEAN_ELEMENT_THEORY = SGP/SGP4

EPOCH          = 2025-12-27T03:18:32.857920
MEAN_MOTION    = 14.47252917
ECCENTRICITY   = .0005739
INCLINATION    = 34.9947
RA_OF_ASC_NODE = 310.2821
ARG_OF_PERICENTER = 329.2954
MEAN_ANOMALY   = 30.7401

EPHEMERIS_TYPE = 0
CLASSIFICATION_TYPE = U
NORAD_CAT_ID   = 3597
ELEMENT_SET_NO = 999
REV_AT_EPOCH   = 858
BSTAR          = .88913134E-4
MEAN_MOTION_DOT = .311E-5
MEAN_MOTION_DDOT = 0

CCSDS_OMM_VERS = 2.0
CREATION_DATE  = 
ORIGINATOR     = 

OBJECT_NAME    = ISIS 1
OBJECT_ID      = 1969-009A
CENTER_NAME    = EARTH
REF_FRAME      = TEME
TIME_SYSTEM    = UTC
MEAN_ELEMENT_THEORY = SGP/SGP4

EPOCH          = 2025-12-27T03:12:30.764160
MEAN_MOTION    = 11.30361627
ECCENTRICITY   = .17071405
INCLINATION    = 88.4494
RA_OF_ASC_NODE = 163.2219
ARG_OF_PERICENTER = 235.6086
MEAN_ANOMALY   = 107.1793

EPHEMERIS_TYPE = 0
CLASSIFICATION_TYPE = U
NORAD_CAT_ID   = 3669
ELEMENT_SET_NO = 999
REV_AT_EPOCH   = 34033
BSTAR          = .24970519E-3
MEAN_MOTION_DOT = .348E-5
MEAN_MOTION_DDOT = 0

CCSDS_OMM_VERS = 2.0
CREATION_DATE  = 
ORIGINATOR     = 

OBJECT_NAME    = SERT 2
OBJECT_ID      = 1970-009A
CENTER_NAME    = EARTH
REF_FRAME      = TEME
TIME_SYSTEM    = UTC
MEAN_ELEMENT_THEORY = SGP/SGP4

EPOCH          = 2025-12-27T08:01:53.014368
MEAN_MOTION    = 13.58720010
ECCENTRICITY   = .00049356
INCLINATION    = 99.2672
RA_OF_ASC_NODE = 303.4220
ARG_OF_PERICENTER = 0.3374
MEAN_ANOMALY   = 164.1513

EPHEMERIS_TYPE = 0
CLASSIFICATION_TYPE = U
NORAD_CAT_ID   = 4327
ELEMENT_SET_NO = 999
REV_AT_EPOCH   = 77006
BSTAR          = .13355149E-3
MEAN_MOTION_DOT = .56E-6
MEAN_MOTION_DDOT = 0

CCSDS_OMM_VERS = 2.0
CREATION_DATE  = 
ORIGINATOR     = 

OBJECT_NAME    = SL-3 R/B
OBJECT_ID      = 1971-028B
CENTER_NAME    = EARTH
REF_FRAME      = TEME
TIME_SYSTEM    = UTC
MEAN_ELEMENT_THEORY = SGP/SGP4

EPOCH          = 2025-12-27T06:49:18.525216
MEAN_MOTION    = 15.55337745
ECCENTRICITY   = .00189969
INCLINATION    = 81.2379
RA_OF_ASC_NODE = 141.0604
ARG_OF_PERICENTER = 188.3047
MEAN_ANOMALY   = 171.7892

EPHEMERIS_TYPE = 0
CLASSIFICATION_TYPE = U
NORAD_CAT_ID   = 5118
ELEMENT_SET_NO = 999
REV_AT_EPOCH   = 97739
BSTAR          = .56032855E-3
MEAN_MOTION_DOT = .38483E-3
MEAN_MOTION_DDOT = 0

CCSDS_OMM_VERS = 2.0
CREATION_DATE  = 
ORIGINATOR     = 

OBJECT_NAME    = ASTEX 1
OBJECT_ID      = 1971-089A
CENTER_NAME    = EARTH
REF_FRAME      = TEME
TIME_SYSTEM    = UTC
MEAN_ELEMENT_THEORY = SGP/SGP4

EPOCH          = 2025-12-27T06:13:46.092000
MEAN_MOTION    = 14.50659994
ECCENTRICITY   = .00144885
INCLINATION    = 92.7150
RA_OF_ASC_NODE = 128.3177
ARG_OF_PERICENTER = 337.1091
MEAN_ANOMALY   = 22.9468

EPHEMERIS_TYPE = 0
CLASSIFICATION_TYPE = U
NORAD_CAT_ID   = 5560
ELEMENT_SET_NO = 999
REV_AT_EPOCH   = 85180
BSTAR          = .16349038E-3
MEAN_MOTION_DOT = .641E-5
MEAN_MOTION_DDOT = 0

CCSDS_OMM_VERS = 2.0
CREATION_DATE  = 
ORIGINATOR     = 

OBJECT_NAME    = SL-8 R/B
OBJECT_ID      = 1971-119B
CENTER_NAME    = EARTH
REF_FRAME      = TEME
TIME_SYSTEM    = UTC
MEAN_ELEMENT_THEORY = SGP/SGP4

EPOCH          = 2025-12-27T04:16:14.444544
MEAN_MOTION    = 14.36083397
ECCENTRICITY   = .05581867
INCLINATION    = 73.8892
RA_OF_ASC_NODE = 311.0789
ARG_OF_PERICENTER = 292.4465
MEAN_ANOMALY   = 61.8490

EPHEMERIS_TYPE = 0
CLASSIFICATION_TYPE = U
NORAD_CAT_ID   = 5730
ELEMENT_SET_NO = 999
REV_AT_EPOCH   = 64507
BSTAR          = .70204012E-3
MEAN_MOTION_DOT = .13526E-3
MEAN_MOTION_DDOT = 0

CCSDS_OMM_VERS = 2.0
CREATION_DATE  = 
ORIGINATOR     = 

OBJECT_NAME    = OAO 3 (COPERNICUS)
OBJECT_ID      = 1972-065A
CENTER_NAME    = EARTH
REF_FRAME      = TEME
TIME_SYSTEM    = UTC
MEAN_ELEMENT_THEORY = SGP/SGP4

EPOCH          = 2025-12-27T00:50:49.678080
MEAN_MOTION    = 14.59919118
ECCENTRICITY   = .00072102
INCLINATION    = 35.0071
RA_OF_ASC_NODE = 351.2317
ARG_OF_PERICENTER = 284.0746
MEAN_ANOMALY   = 116.9185

EPHEMERIS_TYPE = 0
CLASSIFICATION_TYPE = U
NORAD_CAT_ID   = 6153
ELEMENT_SET_NO = 999
REV_AT_EPOCH   = 83557
BSTAR          = .10755442E-3
MEAN_MOTION_DOT = .502E-5
MEAN_MOTION_DDOT = 0

