ATLAS CENTAUR 2         
1 00694U 63047A   25361.07805948  .00002127  00000+0  24828-3 0  9995
2 00694  30.3527 241.3647 0548638 160.4844 201.7656 14.11821023121351
THOR AGENA D R/B        
1 00733U 64002A   25360.95674337  .00000264  00000+0  11133-3 0  9998
2 00733  99.1220   5.3443 0033835 109.6515 250.8324 14.33967932227873
SL-3 R/B                
1 00877U 64053B   25360.87597411  .00000261  00000+0  75064-4 0  9992
2 00877  65.0749 184.6955 0075058 315.6961  43.8146 14.61286155256153
SL-8 R/B                
1 02802U 67045B   25361.32610751  .00000535  00000+0  15564-3 0  9992
2 02802  74.0110 123.2260 0063560 148.9235 211.5708 14.45552237 78563
SL-8 R/B                
1 03230U 68040B   25361.28812224  .00004428  00000+0  33289-3 0  9997
2 03230  74.0313 101.5651 0026139 300.8071  59.0545 15.02628721 79139
OAO 2                   
1 03597U 68110A   25361.13788030  .00000311  00000+0  88913-4 0  9994
2 03597  34.9947 310.2821 0005739 329.2954  30.7401 14.47252917  8585
ISIS 1                  
1 03669U 69009A   25361.13368940  .00000348  00000+0  24971-3 0  9999
2 03669  88.4494 163.2219 1707140 235.6086 107.1793 11.30361627340338
SERT 2                  
1 04327U 70009A   25361.33464137  .00000056  00000+0  13355-3 0  9990
2 04327  99.2672 303.4220 0004935   0.3374 164.1513 13.58720010770063
SL-3 R/B                
1 05118U 71028B   25361.28424219  .00038483  00000+0  56033-3 0  9997
2 05118  81.2379 141.0604 0018996 188.3047 171.7892 15.55337745977392
ASTEX 1                 
1 05560U 71089A   25361.25956125  .00000641  00000+0  16349-3 0  9999
2 05560  92.7150 128.3177 0014488 337.1091  22.9468 14.50659994851805
SL-8 R/B                
1 05730U 71119B   25361.17794496  .00013526  00000+0  70204-3 0  9990
2 05730  73.8892 311.0789 0558186 292.4465  61.8490 14.36083397645072
OAO 3 (COPERNICUS)      
1 06153U 72065A   25361.03529720  .00000502  00000+0  10755-3 0  9997
2 06153  35.0071 351.2317 0007210 284.0746 116.9185 14.59919118835573
